FENGYUN 1C DEB          
1 30966U 99025BBG 17345.16592686  .00003026  00000-0  50090-3 0  9990
2 30966  99.1211 317.3261 0089413 353.8822  68.6277 14.68595928570003
